OBJECT_NAME,OBJECT_ID,EPOCH,MEAN_MOTION,ECCENTRICITY,INCLINATION,RA_OF_ASC_NODE,ARG_OF_PERICENTER,MEAN_ANOMALY,EPHEMERIS_TYPE,CLASSIFICATION_TYPE,NORAD_CAT_ID,ELEMENT_SET_NO,REV_AT_EPOCH,BSTAR,MEAN_MOTION_DOT,MEAN_MOTION_DDOT
ONEWEB-0667,2023-029AH,2026-06-12T06:07:09.414048,13.20771659,.00018064,87.9195,275.4130,96.8300,263.3039,0,U,55827,999,16049,.18049268E-3,.86E-6,0
ONEWEB-0669,2023-029AJ,2026-06-12T05:59:52.681920,13.20771865,.0002324,87.9189,275.4255,88.9150,271.2249,0,U,55828,999,16049,.18235065E-3,.87E-6,0
ONEWEB-0670,2023-029AK,2026-06-11T19:23:25.514016,13.14502559,.00017285,87.8949,290.8138,87.4476,272.6852,0,U,55829,999,15872,.62331275E-3,.244E-5,0
ONEWEB-0671,2023-029AL,2026-06-11T19:58:16.489920,13.19723656,.00016938,87.9164,306.0428,94.8203,265.3124,0,U,55830,999,15819,.12646947E-4,.18E-6,0
ONEWEB-0672,2023-029AM,2026-06-12T05:52:35.815008,13.20772177,.00022324,87.9190,275.4197,100.4163,259.7222,0,U,55831,999,16049,.15868872E-3,.78E-6,0
ONEWEB-0673,2023-029AN,2026-06-12T02:42:00.614304,13.19726850,.00017318,87.9169,305.9782,94.4811,265.6520,0,U,55832,999,15823,.4786774E-4,.32E-6,0
ONEWEB-0674,2023-029AP,2026-06-12T07:25:00.607584,13.14503957,.00017775,87.8948,290.6906,87.1023,273.0310,0,U,55833,999,15877,-.55409238E-3,-.193E-5,0
ONEWEB-0675,2023-029AQ,2026-06-12T03:03:37.409184,13.19724263,.00020562,87.9162,305.9855,105.2501,254.8859,0,U,55834,999,15825,-.1606868E-5,.12E-6,0
ONEWEB-0720,2023-029AR,2026-06-12T02:52:14.564928,13.19724271,.00015651,87.9163,305.9872,101.8977,258.2331,0,U,55835,999,15817,.10540415E-3,.55E-6,0
ONEWEB-0537,2023-043A,2026-06-12T06:06:54.519552,13.16594485,.00022491,87.9099,229.7509,100.5490,259.5895,0,U,56046,999,15831,.29397102E-3,.125E-5,0
ONEWEB-0538,2023-043B,2026-06-12T04:08:21.280992,13.16594359,.00020711,87.9100,229.7697,105.6515,254.4844,0,U,56047,999,15831,.27208054E-3,.117E-5,0
ONEWEB-0546,2023-043C,2026-06-12T05:39:33.179616,13.16594186,.00027412,87.9100,229.7570,99.8929,260.2512,0,U,56048,999,15831,.58279149E-4,.35E-6,0
ONEWEB-0547,2023-043D,2026-06-12T06:03:06.842592,13.21825684,.00019236,87.9257,244.9558,103.5087,256.6262,0,U,56049,999,15757,.2119579E-3,.101E-5,0
ONEWEB-0548,2023-043E,2026-06-12T06:14:52.332288,13.16596270,.00020746,87.9098,229.7485,85.2188,274.9180,0,U,56050,999,15831,.20732376E-3,.92E-6,0
ONEWEB-0549,2023-043F,2026-06-12T05:54:38.520288,13.21825643,.00020385,87.9252,244.9637,110.5181,249.6172,0,U,56051,999,15757,.2426438E-3,.113E-5,0
ONEWEB-0550,2023-043G,2026-06-12T05:35:16.727136,13.21825588,.00019424,87.9254,244.9638,93.5457,266.5899,0,U,56052,999,15757,.19215577E-3,.92E-6,0
ONEWEB-0551,2023-043H,2026-06-12T06:54:05.353344,13.15549307,.00018327,87.8999,260.2021,110.5326,249.6001,0,U,56053,999,15575,-.14031885E-3,-.4E-6,0
ONEWEB-0552,2023-043J,2026-06-12T05:27:58.845888,13.21828210,.00018252,87.9251,244.9703,99.7946,260.3394,0,U,56054,999,15757,.12324007E-3,.64E-6,0
ONEWEB-0553,2023-043K,2026-06-12T03:59:13.868736,13.16594218,.00025007,87.9097,229.7714,96.0841,264.0575,0,U,56055,999,15831,.30073478E-3,.128E-5,0
ONEWEB-0554,2023-043L,2026-06-12T05:30:25.924608,13.16585584,.00020455,87.9095,229.7678,83.2973,276.8391,0,U,56056,999,15830,.11233512E-3,.56E-6,0
ONEWEB-0555,2023-043M,2026-06-12T04:35:41.362080,13.16596569,.00026578,87.9103,229.7632,97.9390,262.2042,0,U,56057,999,15830,.7592981E-4,.42E-6,0
ONEWEB-0557,2023-043N,2026-06-12T04:56:13.378560,13.16594505,.00029249,87.9101,229.7707,76.4918,283.6539,0,U,56058,999,15830,.55407116E-4,.34E-6,0
ONEWEB-0558,2023-043P,2026-06-12T05:18:17.417952,13.21827420,.00020858,87.9252,244.9665,108.7275,251.4086,0,U,56059,999,15758,.11400867E-3,.6E-6,0
ONEWEB-0559,2023-043Q,2026-06-12T06:50:19.730112,13.21827380,.00018639,87.9256,244.9488,104.0433,256.0908,0,U,56060,999,15760,.6267867E-5,.16E-6,0
ONEWEB-0566,2023-043R,2026-06-12T06:40:39.984384,13.21826858,.00018151,87.9256,244.9483,107.5924,252.5408,0,U,56061,999,15758,.14936315E-3,.75E-6,0
ONEWEB-0568,2023-043S,2026-06-12T05:21:18.687744,13.16594231,.00023671,87.9097,229.7571,97.6663,262.4737,0,U,56062,999,15832,-.15781549E-4,.7E-7,0
ONEWEB-0574,2023-043T,2026-06-12T06:30:57.523968,13.21826471,.00021357,87.9267,244.9521,94.4234,265.7144,0,U,56063,999,15762,-.34425693E-3,-.129E-5,0
ONEWEB-0575,2023-043U,2026-06-12T05:12:11.581344,13.16594082,.0002352,87.9098,229.7548,89.4890,270.6511,0,U,56064,999,15831,-.70560437E-4,-.14E-6,0
ONEWEB-0576,2023-043V,2026-06-12T04:44:49.413696,13.16594111,.0002198,87.9101,229.7658,92.9727,267.1656,0,U,56065,999,15830,-.20053721E-4,.5E-7,0
ONEWEB-0577,2023-043W,2026-06-12T04:53:57.043680,13.16593528,.00023765,87.9102,229.7623,79.1441,280.9957,0,U,56066,999,15833,-.93404186E-4,-.23E-6,0
