ONEWEB-0667             
1 55827U 23029AH  26163.25497007  .00000086  00000+0  18049-3 0  9993
2 55827  87.9195 275.4130 0001806  96.8300 263.3039 13.20771659160498
ONEWEB-0669             
1 55828U 23029AJ  26163.24991530  .00000087  00000+0  18235-3 0  9991
2 55828  87.9189 275.4255 0002324  88.9150 271.2249 13.20771865160491
ONEWEB-0670             
1 55829U 23029AK  26162.80793419  .00000244  00000+0  62331-3 0  9990
2 55829  87.8949 290.8138 0001728  87.4476 272.6852 13.14502559158721
ONEWEB-0671             
1 55830U 23029AL  26162.83213530  .00000018  00000+0  12647-4 0  9991
2 55830  87.9164 306.0428 0001693  94.8203 265.3124 13.19723656158196
ONEWEB-0672             
1 55831U 23029AM  26163.24485897  .00000078  00000+0  15869-3 0  9999
2 55831  87.9190 275.4197 0002232 100.4163 259.7222 13.20772177160493
ONEWEB-0673             
1 55832U 23029AN  26163.11250711  .00000032  00000+0  47868-4 0  9996
2 55832  87.9169 305.9782 0001731  94.4811 265.6520 13.19726850158235
ONEWEB-0674             
1 55833U 23029AP  26163.30903481 -.00000193  00000+0 -55409-3 0  9996
2 55833  87.8948 290.6906 0001777  87.1023 273.0310 13.14503957158777
ONEWEB-0675             
1 55834U 23029AQ  26163.12751631  .00000012  00000+0 -16069-5 0  9995
2 55834  87.9162 305.9855 0002056 105.2501 254.8859 13.19724263158252
ONEWEB-0720             
1 55835U 23029AR  26163.11961302  .00000055  00000+0  10540-3 0  9995
2 55835  87.9163 305.9872 0001565 101.8977 258.2331 13.19724271158179
ONEWEB-0537             
1 56046U 23043A   26163.25479768  .00000125  00000+0  29397-3 0  9999
2 56046  87.9099 229.7509 0002249 100.5490 259.5895 13.16594485158312
ONEWEB-0538             
1 56047U 23043B   26163.17246853  .00000117  00000+0  27208-3 0  9998
2 56047  87.9100 229.7697 0002071 105.6515 254.4844 13.16594359158319
ONEWEB-0546             
1 56048U 23043C   26163.23580069  .00000035  00000+0  58279-4 0  9998
2 56048  87.9100 229.7570 0002741  99.8929 260.2512 13.16594186158312
ONEWEB-0547             
1 56049U 23043D   26163.25216253  .00000101  00000+0  21196-3 0  9993
2 56049  87.9257 244.9558 0001923 103.5087 256.6262 13.21825684157574
ONEWEB-0548             
1 56050U 23043E   26163.26032792  .00000092  00000+0  20732-3 0  9994
2 56050  87.9098 229.7485 0002074  85.2188 274.9180 13.16596270158310
ONEWEB-0549             
1 56051U 23043F   26163.24627917  .00000113  00000+0  24264-3 0  9990
2 56051  87.9252 244.9637 0002038 110.5181 249.6172 13.21825643157578
ONEWEB-0550             
1 56052U 23043G   26163.23283249  .00000092  00000+0  19216-3 0  9993
2 56052  87.9254 244.9638 0001942  93.5457 266.5899 13.21825588157573
ONEWEB-0551             
1 56053U 23043H   26163.28756196 -.00000040  00000+0 -14032-3 0  9991
2 56053  87.8999 260.2021 0001832 110.5326 249.6001 13.15549307155759
ONEWEB-0552             
1 56054U 23043J   26163.22776442  .00000064  00000+0  12324-3 0  9998
2 56054  87.9251 244.9703 0001825  99.7946 260.3394 13.21828210157573
ONEWEB-0553             
1 56055U 23043K   26163.16613274  .00000128  00000+0  30073-3 0  9997
2 56055  87.9097 229.7714 0002500  96.0841 264.0575 13.16594218158317
ONEWEB-0554             
1 56056U 23043L   26163.22946672  .00000056  00000+0  11234-3 0  9994
2 56056  87.9095 229.7678 0002045  83.2973 276.8391 13.16585584158305
ONEWEB-0555             
1 56057U 23043M   26163.19145095  .00000042  00000+0  75930-4 0  9990
2 56057  87.9103 229.7632 0002657  97.9390 262.2042 13.16596569158307
ONEWEB-0557             
1 56058U 23043N   26163.20571040  .00000034  00000+0  55407-4 0  9994
2 56058  87.9101 229.7707 0002924  76.4918 283.6539 13.16594505158300
ONEWEB-0558             
1 56059U 23043P   26163.22103493  .00000060  00000+0  11401-3 0  9994
2 56059  87.9252 244.9665 0002085 108.7275 251.4086 13.21827420157583
ONEWEB-0559             
1 56060U 23043Q   26163.28495058  .00000016  00000+0  62679-5 0  9999
2 56060  87.9256 244.9488 0001863 104.0433 256.0908 13.21827380157602
ONEWEB-0566             
1 56061U 23043R   26163.27824056  .00000075  00000+0  14936-3 0  9999
2 56061  87.9256 244.9483 0001815 107.5924 252.5408 13.21826858157580
ONEWEB-0568             
1 56062U 23043S   26163.22313296  .00000007  00000+0 -15782-4 0  9991
2 56062  87.9097 229.7571 0002367  97.6663 262.4737 13.16594231158324
ONEWEB-0574             
1 56063U 23043T   26163.27149912 -.00000129  00000+0 -34426-3 0  9990
2 56063  87.9267 244.9521 0002135  94.4234 265.7144 13.21826471157620
ONEWEB-0575             
1 56064U 23043U   26163.21680071 -.00000014  00000+0 -70560-4 0  9994
2 56064  87.9098 229.7548 0002352  89.4890 270.6511 13.16594082158310
ONEWEB-0576             
1 56065U 23043V   26163.19779414  .00000005  00000+0 -20054-4 0  9994
2 56065  87.9101 229.7658 0002198  92.9727 267.1656 13.16594111158307
ONEWEB-0577             
1 56066U 23043W   26163.20413245 -.00000023  00000+0 -93404-4 0  9994
2 56066  87.9102 229.7623 0002376  79.1441 280.9957 13.16593528158330
